GLOBALSTAR M023         
1 25621U 99004A   25016.51502735 -.00000085  00000+0  10694-3 0  9996
2 25621  52.0090 155.2851 0010697 149.0957 296.5566 12.62494540196573
GLOBALSTAR M040         
1 25622U 99004B   25016.41980913 -.00000075  00000+0  16105-3 0  9996
2 25622  51.9901 159.5025 0001766  87.2084 307.6888 12.61997838196099
GLOBALSTAR M036         
1 25623U 99004C   25016.18490166  .00000040  00000+0  17863-2 0  9999
2 25623  51.9971 280.9665 0011310 118.7217  37.9038 11.86589443160939
GLOBALSTAR M038         
1 25624U 99004D   25016.35507405 -.00000085  00000+0  86770-4 0  9999
2 25624  51.9957 148.8276 0002901 102.5173 274.9542 12.32518447183657
GLOBALSTAR M022         
1 25649U 99012A   25016.31306906 -.00000056  00000+0  37409-3 0  9996
2 25649  52.0067 343.7643 0001971 229.3090 279.8157 12.02494432158106
GLOBALSTAR M041         
1 25650U 99012B   25016.61631766 -.00000078  00000+0  97626-4 0  9998
2 25650  51.9988 219.7723 0002858  44.3555 315.7510 11.96670015160139
GLOBALSTAR M046         
1 25651U 99012C   25016.21518594  .00000030  00000+0  13104-2 0  9992
2 25651  52.0074 299.7137 0002134 328.8489 197.8495 12.09406471165277
GLOBALSTAR M037         
1 25652U 99012D   25016.18728970 -.00000039  00000+0  36139-3 0  9994
2 25652  52.0010 286.9591 0001294 193.1569 331.4302 12.62432935192072
